SL-16 R/B               
1 25400U 98043G   25347.28953595  .00000146  00000+0  80015-4 0  9990
2 25400  98.8124 295.1106 0008779 264.9942  95.0235 14.26025875426675
SL-16 R/B               
1 25407U 98045B   25347.32977914 -.00000163  00000+0 -58449-4 0  9992
2 25407  71.0117   3.1863 0006907 176.6559 183.4612 14.16174980414879
ISS (ZARYA)             
1 25544U 98067A   25347.12152100  .00016130  00000+0  29450-3 0  9996
2 25544  51.6303 140.5889 0003238 241.9684 118.0978 15.49559837542916
CZ-4B R/B               
1 25732U 99025C   25347.10058906  .00000138  00000+0  87488-4 0  9994
2 25732  98.6770  28.3726 0036292 232.9383 181.3196 14.18243747375890
OKEAN-O                 
1 25860U 99039A   25347.12757971  .00001207  00000+0  16579-3 0  9991
2 25860  97.9604  42.8259 0000791  98.4382 261.6920 14.80162499421589
SL-16 R/B               
1 25861U 99039B   25347.12228964  .00000996  00000+0  13347-3 0  9991
2 25861  98.0127  41.2735 0014952 173.3680 186.7733 14.81587532424045
DELTA 2 R/B             
1 25876U 99041E   25347.28013915  .00002012  00000+0  36295-3 0  9993
2 25876  51.7612 286.2886 0504693  93.3583 272.5191 14.11403803350820
HELIOS 1B               
1 25977U 99064A   25347.27442620  .00003576  00000+0  40289-3 0  9992
2 25977  98.1753 241.9559 0001674  43.5837 316.5510 14.87288972672415
TERRA                   
1 25994U 99068A   25347.27772512  .00000820  00000+0  17670-3 0  9998
2 25994  97.9750  38.9425 0003606  93.4054 304.9080 14.60903225382468
SL-16 R/B               
1 26070U 00006B   25347.25212007 -.00000123  00000+0 -38177-4 0  9998
2 26070  71.0032 279.5800 0018536 307.8565  52.0880 14.15810673336324
TITAN 4B R/B            
1 26474U 00047B   25347.27336435  .00006245  00000+0  39757-3 0  9998
2 26474  67.9898 283.3565 0038857 143.7267 216.6529 15.08789708379873
ENVISAT                 
1 27386U 02009A   25347.33350666  .00000249  00000+0  94483-4 0  9996
2 27386  98.3600 298.0590 0001128  83.0560  34.0209 14.38999732246758
