CCSDS_OMM_VERS = 2.0
CREATION_DATE  = 
ORIGINATOR     = 

OBJECT_NAME    = SL-16 R/B
OBJECT_ID      = 1998-043G
CENTER_NAME    = EARTH
REF_FRAME      = TEME
TIME_SYSTEM    = UTC
MEAN_ELEMENT_THEORY = SGP/SGP4

EPOCH          = 2025-12-13T06:56:55.906080
MEAN_MOTION    = 14.26025875
ECCENTRICITY   = .00087797
INCLINATION    = 98.8124
RA_OF_ASC_NODE = 295.1106
ARG_OF_PERICENTER = 264.9942
MEAN_ANOMALY   = 95.0235

EPHEMERIS_TYPE = 0
CLASSIFICATION_TYPE = U
NORAD_CAT_ID   = 25400
ELEMENT_SET_NO = 999
REV_AT_EPOCH   = 42667
BSTAR          = .80015019E-4
MEAN_MOTION_DOT = .146E-5
MEAN_MOTION_DDOT = 0

CCSDS_OMM_VERS = 2.0
CREATION_DATE  = 
ORIGINATOR     = 

OBJECT_NAME    = SL-16 R/B
OBJECT_ID      = 1998-045B
CENTER_NAME    = EARTH
REF_FRAME      = TEME
TIME_SYSTEM    = UTC
MEAN_ELEMENT_THEORY = SGP/SGP4

EPOCH          = 2025-12-13T07:54:52.917696
MEAN_MOTION    = 14.16174980
ECCENTRICITY   = .0006907
INCLINATION    = 71.0117
RA_OF_ASC_NODE = 3.1863
ARG_OF_PERICENTER = 176.6559
MEAN_ANOMALY   = 183.4612

EPHEMERIS_TYPE = 0
CLASSIFICATION_TYPE = U
NORAD_CAT_ID   = 25407
ELEMENT_SET_NO = 999
REV_AT_EPOCH   = 41487
BSTAR          = -.58448764E-4
MEAN_MOTION_DOT = -.163E-5
MEAN_MOTION_DDOT = 0

CCSDS_OMM_VERS = 2.0
CREATION_DATE  = 
ORIGINATOR     = 

OBJECT_NAME    = ISS (ZARYA)
OBJECT_ID      = 1998-067A
CENTER_NAME    = EARTH
REF_FRAME      = TEME
TIME_SYSTEM    = UTC
MEAN_ELEMENT_THEORY = SGP/SGP4

EPOCH          = 2025-12-13T02:54:59.414400
MEAN_MOTION    = 15.49559837
ECCENTRICITY   = .00032382
INCLINATION    = 51.6303
RA_OF_ASC_NODE = 140.5889
ARG_OF_PERICENTER = 241.9684
MEAN_ANOMALY   = 118.0978

EPHEMERIS_TYPE = 0
CLASSIFICATION_TYPE = U
NORAD_CAT_ID   = 25544
ELEMENT_SET_NO = 999
REV_AT_EPOCH   = 54291
BSTAR          = .29450217E-3
MEAN_MOTION_DOT = .1613E-3
MEAN_MOTION_DDOT = 0

CCSDS_OMM_VERS = 2.0
CREATION_DATE  = 
ORIGINATOR     = 

OBJECT_NAME    = CZ-4B R/B
OBJECT_ID      = 1999-025C
CENTER_NAME    = EARTH
REF_FRAME      = TEME
TIME_SYSTEM    = UTC
MEAN_ELEMENT_THEORY = SGP/SGP4

EPOCH          = 2025-12-13T02:24:50.894784
MEAN_MOTION    = 14.18243747
ECCENTRICITY   = .00362925
INCLINATION    = 98.6770
RA_OF_ASC_NODE = 28.3726
ARG_OF_PERICENTER = 232.9383
MEAN_ANOMALY   = 181.3196

EPHEMERIS_TYPE = 0
CLASSIFICATION_TYPE = U
NORAD_CAT_ID   = 25732
ELEMENT_SET_NO = 999
REV_AT_EPOCH   = 37589
BSTAR          = .87487736E-4
MEAN_MOTION_DOT = .138E-5
MEAN_MOTION_DDOT = 0

CCSDS_OMM_VERS = 2.0
CREATION_DATE  = 
ORIGINATOR     = 

OBJECT_NAME    = OKEAN-O
OBJECT_ID      = 1999-039A
CENTER_NAME    = EARTH
REF_FRAME      = TEME
TIME_SYSTEM    = UTC
MEAN_ELEMENT_THEORY = SGP/SGP4

EPOCH          = 2025-12-13T03:03:42.886944
MEAN_MOTION    = 14.80162499
ECCENTRICITY   = .00007911
INCLINATION    = 97.9604
RA_OF_ASC_NODE = 42.8259
ARG_OF_PERICENTER = 98.4382
MEAN_ANOMALY   = 261.6920

EPHEMERIS_TYPE = 0
CLASSIFICATION_TYPE = U
NORAD_CAT_ID   = 25860
ELEMENT_SET_NO = 999
REV_AT_EPOCH   = 42158
BSTAR          = .1657946E-3
MEAN_MOTION_DOT = .1207E-4
MEAN_MOTION_DDOT = 0

CCSDS_OMM_VERS = 2.0
CREATION_DATE  = 
ORIGINATOR     = 

OBJECT_NAME    = SL-16 R/B
OBJECT_ID      = 1999-039B
CENTER_NAME    = EARTH
REF_FRAME      = TEME
TIME_SYSTEM    = UTC
MEAN_ELEMENT_THEORY = SGP/SGP4

EPOCH          = 2025-12-13T02:56:05.824896
MEAN_MOTION    = 14.81587532
ECCENTRICITY   = .00149523
INCLINATION    = 98.0127
RA_OF_ASC_NODE = 41.2735
ARG_OF_PERICENTER = 173.3680
MEAN_ANOMALY   = 186.7733

EPHEMERIS_TYPE = 0
CLASSIFICATION_TYPE = U
NORAD_CAT_ID   = 25861
ELEMENT_SET_NO = 999
REV_AT_EPOCH   = 42404
BSTAR          = .1334711E-3
MEAN_MOTION_DOT = .996E-5
MEAN_MOTION_DDOT = 0

CCSDS_OMM_VERS = 2.0
CREATION_DATE  = 
ORIGINATOR     = 

OBJECT_NAME    = DELTA 2 R/B
OBJECT_ID      = 1999-041E
CENTER_NAME    = EARTH
REF_FRAME      = TEME
TIME_SYSTEM    = UTC
MEAN_ELEMENT_THEORY = SGP/SGP4

EPOCH          = 2025-12-13T06:43:24.022560
MEAN_MOTION    = 14.11403803
ECCENTRICITY   = .05046938
INCLINATION    = 51.7612
RA_OF_ASC_NODE = 286.2886
ARG_OF_PERICENTER = 93.3583
MEAN_ANOMALY   = 272.5191

EPHEMERIS_TYPE = 0
CLASSIFICATION_TYPE = U
NORAD_CAT_ID   = 25876
ELEMENT_SET_NO = 999
REV_AT_EPOCH   = 35082
BSTAR          = .36294791E-3
MEAN_MOTION_DOT = .2012E-4
MEAN_MOTION_DDOT = 0

CCSDS_OMM_VERS = 2.0
CREATION_DATE  = 
ORIGINATOR     = 

OBJECT_NAME    = HELIOS 1B
OBJECT_ID      = 1999-064A
CENTER_NAME    = EARTH
REF_FRAME      = TEME
TIME_SYSTEM    = UTC
MEAN_ELEMENT_THEORY = SGP/SGP4

EPOCH          = 2025-12-13T06:35:10.423680
MEAN_MOTION    = 14.87288972
ECCENTRICITY   = .00016747
INCLINATION    = 98.1753
RA_OF_ASC_NODE = 241.9559
ARG_OF_PERICENTER = 43.5837
MEAN_ANOMALY   = 316.5510

EPHEMERIS_TYPE = 0
CLASSIFICATION_TYPE = U
NORAD_CAT_ID   = 25977
ELEMENT_SET_NO = 999
REV_AT_EPOCH   = 67241
BSTAR          = .40288614E-3
MEAN_MOTION_DOT = .3576E-4
MEAN_MOTION_DDOT = 0

CCSDS_OMM_VERS = 2.0
CREATION_DATE  = 
ORIGINATOR     = 

OBJECT_NAME    = TERRA
OBJECT_ID      = 1999-068A
CENTER_NAME    = EARTH
REF_FRAME      = TEME
TIME_SYSTEM    = UTC
MEAN_ELEMENT_THEORY = SGP/SGP4

EPOCH          = 2025-12-13T06:39:55.450368
MEAN_MOTION    = 14.60903225
ECCENTRICITY   = .00036061
INCLINATION    = 97.9750
RA_OF_ASC_NODE = 38.9425
ARG_OF_PERICENTER = 93.4054
MEAN_ANOMALY   = 304.9080

EPHEMERIS_TYPE = 0
CLASSIFICATION_TYPE = U
NORAD_CAT_ID   = 25994
ELEMENT_SET_NO = 999
REV_AT_EPOCH   = 38246
BSTAR          = .17670249E-3
MEAN_MOTION_DOT = .82E-5
MEAN_MOTION_DDOT = 0

CCSDS_OMM_VERS = 2.0
CREATION_DATE  = 
ORIGINATOR     = 

OBJECT_NAME    = SL-16 R/B
OBJECT_ID      = 2000-006B
CENTER_NAME    = EARTH
REF_FRAME      = TEME
TIME_SYSTEM    = UTC
MEAN_ELEMENT_THEORY = SGP/SGP4

EPOCH          = 2025-12-13T06:03:03.174048
MEAN_MOTION    = 14.15810673
ECCENTRICITY   = .00185367
INCLINATION    = 71.0032
RA_OF_ASC_NODE = 279.5800
ARG_OF_PERICENTER = 307.8565
MEAN_ANOMALY   = 52.0880

EPHEMERIS_TYPE = 0
CLASSIFICATION_TYPE = U
NORAD_CAT_ID   = 26070
ELEMENT_SET_NO = 999
REV_AT_EPOCH   = 33632
BSTAR          = -.3817658E-4
MEAN_MOTION_DOT = -.123E-5
MEAN_MOTION_DDOT = 0

CCSDS_OMM_VERS = 2.0
CREATION_DATE  = 
ORIGINATOR     = 

OBJECT_NAME    = TITAN 4B R/B
OBJECT_ID      = 2000-047B
CENTER_NAME    = EARTH
REF_FRAME      = TEME
TIME_SYSTEM    = UTC
MEAN_ELEMENT_THEORY = SGP/SGP4

EPOCH          = 2025-12-13T06:33:38.679840
MEAN_MOTION    = 15.08789708
ECCENTRICITY   = .00388572
INCLINATION    = 67.9898
RA_OF_ASC_NODE = 283.3565
ARG_OF_PERICENTER = 143.7267
MEAN_ANOMALY   = 216.6529

EPHEMERIS_TYPE = 0
CLASSIFICATION_TYPE = U
NORAD_CAT_ID   = 26474
ELEMENT_SET_NO = 999
REV_AT_EPOCH   = 37987
BSTAR          = .39757011E-3
MEAN_MOTION_DOT = .6245E-4
MEAN_MOTION_DDOT = 0

CCSDS_OMM_VERS = 2.0
CREATION_DATE  = 
ORIGINATOR     = 

OBJECT_NAME    = ENVISAT
OBJECT_ID      = 2002-009A
CENTER_NAME    = EARTH
REF_FRAME      = TEME
TIME_SYSTEM    = UTC
MEAN_ELEMENT_THEORY = SGP/SGP4

EPOCH          = 2025-12-13T08:00:14.975424
MEAN_MOTION    = 14.38999732
ECCENTRICITY   = .00011284
INCLINATION    = 98.3600
RA_OF_ASC_NODE = 298.0590
ARG_OF_PERICENTER = 83.0560
MEAN_ANOMALY   = 34.0209

EPHEMERIS_TYPE = 0
CLASSIFICATION_TYPE = U
NORAD_CAT_ID   = 27386
ELEMENT_SET_NO = 999
REV_AT_EPOCH   = 24675
BSTAR          = .94483291E-4
MEAN_MOTION_DOT = .249E-5
MEAN_MOTION_DDOT = 0

